STARLINK-30142          
1 56836U 23079P   26068.14932778 -.00000951  00000+0 -25056-4 0  9990
2 56836  42.9981 106.8569 0000928 278.1929  81.8818 15.27563421152845
KUIPER-00266            
1 67789U 26030AB  26067.91293632  .00029701  00000+0  98220-3 0  9996
2 67789  51.8807 223.5904 0022313  72.5291 287.8129 15.30874235  4964
